0 NAVSTAR 54 (USA 177)
1 28190U 04009A   13282.38703922  .00000042  00000-0  00000+0 0  8852
2 28190 055.2214 099.5942 0094941 020.9432 308.6111 02.00554511 70040
0 NAVSTAR 54 (USA 177)
1 28190U 04009A   13283.26119731  .00000045  00000-0  00000+0 0  8863
2 28190 055.2218 099.5592 0094954 020.9622 219.7511 02.00554514 70061
0 NAVSTAR 54 (USA 177)
1 28190U 04009A   13284.27756834  .00000049  00000-0  00000+0 0  8871
2 28190 055.2223 099.5186 0094969 020.9833 233.5694 02.00554515 70085
0 NAVSTAR 54 (USA 177)
1 28190U 04009A   13285.36120772  .00000054  00000-0  00000+0 0  8885
2 28190 055.2228 099.4753 0094979 021.0027 295.9583 02.00554513 70107
0 NAVSTAR 54 (USA 177)
1 28190U 04009A   13286.37463784  .00000057  00000-0  00000+0 0  8894
2 28190 055.2233 099.4348 0095010 021.0169 307.6602 02.00554513 70122
0 NAVSTAR 54 (USA 177)
1 28190U 04009A   13287.25281971  .00000056  00000-0  00000+0 0  8909
2 28190 055.2237 099.3997 0095027 021.0300 221.7114 02.00554505 70147
0 NAVSTAR 54 (USA 177)
1 28190U 04009A   13287.86485990  .00000054  00000-0  00000+0 0  8912
2 28190 055.2240 099.3752 0095019 021.0332 303.6131 02.00554502 70153
0 NAVSTAR 54 (USA 177)
1 28190U 04009A   13289.21354522  .00000043  00000-0  00000+0 0  8928
2 28190 055.2246 099.3213 0095162 021.0477 197.3764 02.00554487 70174
0 NAVSTAR 54 (USA 177)
1 28190U 04009A   13289.21354522  .00000043  00000-0  00000+0 0  8939
2 28190 055.2246 099.3213 0095162 021.0477 197.3764 02.00554487 70174
0 NAVSTAR 54 (USA 177)
1 28190U 04009A   13291.24361707  .00000020  00000-0  00000+0 0  8944
2 28190 055.2256 099.2402 0095191 021.0902 223.0859 02.00554433 70228
0 NAVSTAR 54 (USA 177)
1 28190U 04009A   13291.24361707  .00000020  00000-0  00000+0 0  8955
2 28190 055.2256 099.2402 0095191 021.0902 223.0859 02.00554433 70228
0 NAVSTAR 54 (USA 177)
1 28190U 04009A   13292.32344200  .00000010  00000-0  00000+0 0  8964
2 28190 055.2262 099.1971 0095135 021.1031 282.7279 02.00554388 70246
0 NAVSTAR 54 (USA 177)
1 28190U 04009A   13293.42030851  .00000004  00000-0  00000+0 0  8974
2 28190 055.2267 099.1533 0095220 021.1302 354.6606 02.00554340 70264
0 NAVSTAR 54 (USA 177)
1 28190U 04009A   13293.93410527  .00000003  00000-0  00000+0 0  8982
2 28190 055.2270 099.1328 0095206 021.1345 005.6278 02.00554308 70274
0 NAVSTAR 54 (USA 177)
1 28190U 04009A   13295.37361648  .00000007  00000-0  00000+0 0  8996
2 28190 055.2278 099.0753 0095147 021.1431 324.9751 02.00554205 70306
0 NAVSTAR 54 (USA 177)
1 28190U 04009A   13295.37361648  .00000007  00000-0  00000+0 0  9009
2 28190 055.2278 099.0753 0095147 021.1431 324.9751 02.00554205 70306
